NORAD_CAT_ID,OBJECT_NAME,OBJECT_TYPE,EPOCH,MEAN_MOTION,ECCENTRICITY,INCLINATION,RA_OF_ASC_NODE,ARG_OF_PERICENTER,MEAN_ANOMALY,BSTAR,MEAN_MOTION_DOT,MEAN_MOTION_DDOT,TLE_LINE0,TLE_LINE1,TLE_LINE2,SEMIMAJOR_AXIS,PERIOD,APOGEE,PERIGEE,DECAYED
52465.0,STARLINK-3863,PAYLOAD,2024-08-15 22:35:43,15.08869394,0.0001539,53.2153,91.3116,86.5918,273.525,0.00099349,0.00015571,0.0,0 STARLINK-3863,1 52465U 22049Q   24228.94147693  .00015571  00000-0  99349-3 0  9996,2 52465  53.2153  91.3116 0001539  86.5918 273.5250 15.08869394126229,6917.791,95.436,540.72,538.591,0.0
52465.0,STARLINK-3863,PAYLOAD,2024-08-18 01:28:04,15.08851542,0.0001363,53.2154,81.797,14.727,345.3762,0.0020269,0.00032128,0.0,0 STARLINK-3863,1 52465U 22049Q   24231.06115873  .00032128  00000-0  20269-2 0  9999,2 52465  53.2154  81.7970 0001363  14.7270 345.3762 15.08851542126705,6917.845,95.437,540.653,538.767,0.0
52465.0,STARLINK-3863,PAYLOAD,2024-08-18 20:32:41,15.0886585,0.0001338,53.2167,78.2295,72.0594,288.0544,0.0010427,0.00016357,0.0,0 STARLINK-3863,1 52465U 22049Q   24231.85603105  .00016357  00000-0  10427-2 0  9997,2 52465  53.2167  78.2295 0001338  72.0594 288.0544 15.08865850126829,6917.801,95.436,540.592,538.741,0.0
52465.0,STARLINK-3863,PAYLOAD,2024-08-19 14:01:55,15.08841915,0.0001289,53.2165,74.9582,58.0226,302.0891,2.7398e-05,1.48e-06,0.0,0 STARLINK-3863,1 52465U 22049Q   24232.58467236  .00000148  00000-0  27398-4 0  9999,2 52465  53.2165  74.9582 0001289  58.0226 302.0891 15.08841915126772,6917.875,95.437,540.631,538.848,0.0
52465.0,STARLINK-3863,PAYLOAD,2024-08-20 05:55:47,15.08843298,6.76e-05,53.216,71.9822,67.9463,292.16,0.00065468,0.00010148,0.0,0 STARLINK-3863,1 52465U 22049Q   24233.24707340  .00010148  00000-0  65468-3 0  9996,2 52465  53.2160  71.9822 0000676  67.9463 292.1600 15.08843298126876,6917.87,95.437,540.203,539.268,0.0
52465.0,STARLINK-3863,PAYLOAD,2024-08-20 18:38:52,15.08843289,0.0001282,53.2168,69.6044,74.9071,285.2063,0.00042046,6.411e-05,0.0,0 STARLINK-3863,1 52465U 22049Q   24233.77699605  .00006411  00000-0  42046-3 0  9993,2 52465  53.2168  69.6044 0001282  74.9071 285.2063 15.08843289127115,6917.87,95.437,540.622,538.848,0.0
52465.0,STARLINK-3863,PAYLOAD,2024-08-20 23:25:01,15.08849197,0.0001336,53.2171,68.7111,85.3076,274.8068,0.00054015,8.321e-05,0.0,0 STARLINK-3863,1 52465U 22049Q   24233.97571407  .00008321  00000-0  54015-3 0  9995,2 52465  53.2171  68.7111 0001336  85.3076 274.8068 15.08849197126982,6917.852,95.437,540.642,538.793,0.0
52465.0,STARLINK-3863,PAYLOAD,2024-08-21 18:29:40,15.08826494,9.86e-05,53.2156,65.1436,98.9767,261.1337,-3.9295e-05,-9.13e-06,0.0,0 STARLINK-3863,1 52465U 22049Q   24234.77060513 -.00000913  00000-0 -39295-4 0  9990,2 52465  53.2156  65.1436 0000986  98.9767 261.1337 15.08826494127268,6917.922,95.438,540.469,539.105,0.0
